STARLINK-4148           
1 53293U 22086BD  26068.55322325 -.00000208  00000+0  49844-5 0  9993
2 53293  53.2179 174.7206 0000954 100.9938 259.1161 15.08843952201302
ONEWEB-0618             
1 55159U 23004V   26068.89389266  .00008547  00000+0  49588-3 0  9997
2 55159  86.9069 217.8931 0010784 307.7231  52.3030 15.11974897167255
